[{"OBJECT_NAME":"STARLINK-32781","OBJECT_ID":"2025-019V","EPOCH":"2026-03-09T10:44:01.506624","MEAN_MOTION":15.27590634,"ECCENTRICITY":0.00019403,"INCLINATION":43.0046,"RA_OF_ASC_NODE":90.3672,"ARG_OF_PERICENTER":245.1224,"MEAN_ANOMALY":114.9426,"EPHEMERIS_TYPE":0,"CLASSIFICATION_TYPE":"U","NORAD_CAT_ID":62848,"ELEMENT_SET_NO":999,"REV_AT_EPOCH":6221,"BSTAR":0.0009831518,"MEAN_MOTION_DOT":0.000269,"MEAN_MOTION_DDOT":0},{"OBJECT_NAME":"FENGYUN 1C DEB","OBJECT_ID":"1999-025CUF","EPOCH":"2026-03-09T01:34:38.628768","MEAN_MOTION":15.17132493,"ECCENTRICITY":0.01273829,"INCLINATION":98.8955,"RA_OF_ASC_NODE":293.2327,"ARG_OF_PERICENTER":89.1897,"MEAN_ANOMALY":272.3925,"EPHEMERIS_TYPE":0,"CLASSIFICATION_TYPE":"U","NORAD_CAT_ID":32185,"ELEMENT_SET_NO":999,"REV_AT_EPOCH":96318,"BSTAR":0.0036969643,"MEAN_MOTION_DOT":0.00091378,"MEAN_MOTION_DDOT":0}]
